{
  "norad_id": 66081,
  "name": "STARLINK-35403",
  "history": [
    {
      "epoch": "2026-03-28T21:04:15.322368Z",
      "apogee_km": 476.10467488610175,
      "perigee_km": 474.26935471493834,
      "latitude_deg": 2.326617565549885e-05,
      "longitude_deg": 13.471786164304568,
      "height_km": 476.0181272809413,
      "semi_major_axis_km": 6853.32401480052,
      "eccentricity": 0.0001339,
      "inclination_deg": 53.1578,
      "raan_deg": 155.8277,
      "arg_perigee_deg": 85.8357,
      "mean_anomaly_deg": 274.2797,
      "mean_motion_rev_day": 15.30209396
    },
    {
      "epoch": "2026-03-30T04:25:19.258752Z",
      "apogee_km": 475.80099312999573,
      "perigee_km": 474.5262792116682,
      "latitude_deg": 1.2325277677968341e-05,
      "longitude_deg": -104.14986657136096,
      "height_km": 475.88106225625023,
      "semi_major_axis_km": 6853.300636170832,
      "eccentricity": 9.3e-05,
      "inclination_deg": 53.1589,
      "raan_deg": 149.76,
      "arg_perigee_deg": 73.4973,
      "mean_anomaly_deg": 286.613,
      "mean_motion_rev_day": 15.30217226
    },
    {
      "epoch": "2026-03-30T04:25:19.259616Z",
      "apogee_km": 475.8008560639837,
      "perigee_km": 474.52641627768116,
      "latitude_deg": 1.4093972154683232e-05,
      "longitude_deg": -104.14986886341421,
      "height_km": 475.8811011906864,
      "semi_major_axis_km": 6853.300636170832,
      "eccentricity": 9.298e-05,
      "inclination_deg": 53.1589,
      "raan_deg": 149.76,
      "arg_perigee_deg": 73.4973,
      "mean_anomaly_deg": 286.613,
      "mean_motion_rev_day": 15.30217226
    },
    {
      "epoch": "2026-03-30T13:49:38.584992Z",
      "apogee_km": 475.9757241378702,
      "perigee_km": 474.4416712368993,
      "latitude_deg": -5.732446238901427e-05,
      "longitude_deg": 112.5635912320234,
      "height_km": 475.9652734472753,
      "semi_major_axis_km": 6853.345697687385,
      "eccentricity": 0.00011192,
      "inclination_deg": 53.1585,
      "raan_deg": 147.9403,
      "arg_perigee_deg": 79.3631,
      "mean_anomaly_deg": 280.7495,
      "mean_motion_rev_day": 15.30202134
    },
    {
      "epoch": "2026-03-31T13:20:26.558880Z",
      "apogee_km": 476.0726028142544,
      "perigee_km": 474.4099732415798,
      "latitude_deg": -3.205466372324119e-05,
      "longitude_deg": 114.34676214138348,
      "height_km": 475.96056671222686,
      "semi_major_axis_km": 6853.378288027917,
      "eccentricity": 0.0001213,
      "inclination_deg": 53.1585,
      "raan_deg": 143.389,
      "arg_perigee_deg": 77.5828,
      "mean_anomaly_deg": 282.5308,
      "mean_motion_rev_day": 15.30191219
    },
    {
      "epoch": "2026-04-01T09:43:08.110272Z",
      "apogee_km": 476.1046419781751,
      "perigee_km": 474.3433282050073,
      "latitude_deg": -3.56418453602833e-05,
      "longitude_deg": 163.8929264978088,
      "height_km": 475.78197339656475,
      "semi_major_axis_km": 6853.360985091591,
      "eccentricity": 0.0001285,
      "inclination_deg": 53.1589,
      "raan_deg": 139.4452,
      "arg_perigee_deg": 67.2828,
      "mean_anomaly_deg": 292.8308,
      "mean_motion_rev_day": 15.30197014
    },
    {
      "epoch": "2026-04-02T20:12:18.139104Z",
      "apogee_km": 476.1662823665474,
      "perigee_km": 474.1357901871597,
      "latitude_deg": 4.5659500578240986e-05,
      "longitude_deg": -1.4920929920390615,
      "height_km": 476.0726617038894,
      "semi_major_axis_km": 6853.288036276853,
      "eccentricity": 0.00014814,
      "inclination_deg": 53.1591,
      "raan_deg": 132.7682,
      "arg_perigee_deg": 91.3511,
      "mean_anomaly_deg": 268.766,
      "mean_motion_rev_day": 15.30221446
    },
    {
      "epoch": "2026-04-03T11:52:49.939680Z",
      "apogee_km": 475.9716019958187,
      "perigee_km": 474.4585189279105,
      "latitude_deg": 2.292377910440099e-05,
      "longitude_deg": 119.69851782517105,
      "height_km": 476.0476054511728,
      "semi_major_axis_km": 6853.352060461864,
      "eccentricity": 0.00011039,
      "inclination_deg": 53.1594,
      "raan_deg": 129.7351,
      "arg_perigee_deg": 85.0184,
      "mean_anomaly_deg": 275.0943,
      "mean_motion_rev_day": 15.30200003
    },
    {
      "epoch": "2026-04-04T08:15:32.121792Z",
      "apogee_km": 476.0196718360521,
      "perigee_km": 474.25399436569114,
      "latitude_deg": -1.0928001718616722e-05,
      "longitude_deg": 169.24252294947192,
      "height_km": 475.884024641205,
      "semi_major_axis_km": 6853.273833100871,
      "eccentricity": 0.00012882,
      "inclination_deg": 53.1599,
      "raan_deg": 125.7918,
      "arg_perigee_deg": 80.1591,
      "mean_anomaly_deg": 279.9555,
      "mean_motion_rev_day": 15.30226203
    },
    {
      "epoch": "2026-04-05T09:20:23.925120Z",
      "apogee_km": 476.1906352769811,
      "perigee_km": 474.402985601866,
      "latitude_deg": 7.770087873685565e-05,
      "longitude_deg": 147.1435980762046,
      "height_km": 475.830100521854,
      "semi_major_axis_km": 6853.433810439423,
      "eccentricity": 0.00013042,
      "inclination_deg": 53.1583,
      "raan_deg": 120.9387,
      "arg_perigee_deg": 65.9197,
      "mean_anomaly_deg": 294.1941,
      "mean_motion_rev_day": 15.30172624
    }
  ]
}